$$SOE
2460147.500000000, A.D. 2023-Jul-22 00:00:00.0000, 1.377223525086373E+08, -3.381042426195059E+08, -2.792644840914233E+07,
2460154.500000000, A.D. 2023-Jul-29 00:00:00.0000, 1.470820344317607E+08, -3.320160355919841E+08, -2.691773331405397E+07,
2460161.500000000, A.D. 2023-Aug-05 00:00:00.0000, 1.562937706072524E+08, -3.255940058823450E+08, -2.588195414941534E+07,
2460168.500000000, A.D. 2023-Aug-12 00:00:00.0000, 1.653456227608765E+08, -3.188390421973324E+08, -2.481970963816565E+07,
2460175.500000000, A.D. 2023-Aug-19 00:00:00.0000, 1.742253984064065E+08, -3.117523961532040E+08, -2.373164566132328E+07,
2460182.500000000, A.D. 2023-Aug-26 00:00:00.0000, 1.829206524970662E+08, -3.043357071794467E+08, -2.261845767672096E+07,
2460189.500000000, A.D. 2023-Sep-02 00:00:00.0000, 1.914186904924663E+08, -2.965910288288283E+08, -2.148089321632761E+07,
2460196.500000000, A.D. 2023-Sep-09 00:00:00.0000, 1.997065730584875E+08, -2.885208565402976E+08, -2.031975446171655E+07,
2460203.500000000, A.D. 2023-Sep-16 00:00:00.0000, 2.077711227627957E+08, -2.801281569001272E+08, -1.913590090794313E+07,
2460210.500000000, A.D. 2023-Sep-23 00:00:00.0000, 2.155989333931655E+08, -2.714163980844291E+08, -1.793025211797373E+07,
2460217.500000000, A.D. 2023-Sep-30 00:00:00.0000, 2.231763817845694E+08, -2.623895802440462E+08, -1.670379042381614E+07,
2460224.500000000, A.D. 2023-Oct-07 00:00:00.0000, 2.304896400386958E+08, -2.530522663021579E+08, -1.545756338454613E+07,
2460231.500000000, A.D. 2023-Oct-14 00:00:00.0000, 2.375246894253226E+08, -2.434096163746411E+08, -1.419268634613223E+07,
2460238.500000000, A.D. 2023-Oct-21 00:00:00.0000, 2.442673394584815E+08, -2.334674240770010E+08, -1.291034524375847E+07,
2460245.500000000, A.D. 2023-Oct-28 00:00:00.0000, 2.507032509995072E+08, -2.232321522943017E+08, -1.161179930308108E+07,
2460252.500000000, A.D. 2023-Nov-04 00:00:00.0000, 2.568179624197509E+08, -2.127109689845613E+08, -1.029838355635399E+07,
2460259.500000000, A.D. 2023-Nov-11 00:00:00.0000, 2.625969192862232E+08, -2.019117833729400E+08, -8.971511201977208E+06,
2460266.500000000, A.D. 2023-Nov-18 00:00:00.0000, 2.680255080747478E+08, -1.908432823118676E+08, -7.632675791493088E+06,
2460273.500000000, A.D. 2023-Nov-25 00:00:00.0000, 2.730890942628240E+08, -1.795149664452147E+08, -6.283453202694841E+06,
2460280.500000000, A.D. 2023-Dec-02 00:00:00.0000, 2.777730650969249E+08, -1.679371857947361E+08, -4.925503351298496E+06,
2460287.500000000, A.D. 2023-Dec-09 00:00:00.0000, 2.820628773562067E+08, -1.561211743766801E+08, -3.560571597419739E+06,
2460294.500000000, A.D. 2023-Dec-16 00:00:00.0000, 2.859441106133929E+08, -1.440790833209895E+08, -2.190489812082805E+06,
2460301.500000000, A.D. 2023-Dec-23 00:00:00.0000, 2.894025265204104E+08, -1.318240112261435E+08, -8.171770146192461E+05,
2460308.500000000, A.D. 2023-Dec-30 00:00:00.0000, 2.924241329139811E+08, -1.193700300646092E+08, 5.573606975165904E+05,
2460315.500000000, A.D. 2024-Jan-06 00:00:00.0000, 2.949952510359688E+08, -1.067322083068302E+08, 1.931030969054312E+06,
2460322.500000000, A.D. 2024-Jan-13 00:00:00.0000, 2.971025890237520E+08, -9.392663231285721E+07, 3.301656393215131E+06,
2460329.500000000, A.D. 2024-Jan-20 00:00:00.0000, 2.987333227887967E+08, -8.097042209228554E+07, 4.666976319994681E+06,
2460336.500000000, A.D. 2024-Jan-27 00:00:00.0000, 2.998751820483613E+08, -6.788173992357159E+07, 6.024649582333826E+06,
2460343.500000000, A.D. 2024-Feb-03 00:00:00.0000, 3.005165407550359E+08, -5.467979189281438E+07, 7.372258176716164E+06,
2460350.500000000, A.D. 2024-Feb-10 00:00:00.0000, 3.006465117388749E+08, -4.138482173569164E+07, 8.707311919789873E+06,
2460357.500000000, A.D. 2024-Feb-17 00:00:00.0000, 3.002550450903708E+08, -2.801809606651721E+07, 1.002725413351470E+07,
2460364.500000000, A.D. 2024-Feb-24 00:00:00.0000, 2.993330295517393E+08, -1.460188009310063E+07, 1.132946841247764E+07,
2460371.500000000, A.D. 2024-Mar-02 00:00:00.0000, 2.978723960123525E+08, -1.159403011227118E+06, 1.261128651211852E+07,
2460378.500000000, A.D. 2024-Mar-09 00:00:00.0000, 2.958662221442711E+08, 1.228518761823895E+07, 1.386999736912083E+07,
2460385.500000000, A.D. 2024-Mar-16 00:00:00.0000, 2.933088372958335E+08, 2.570688335528506E+07, 1.510285724364518E+07,
2460392.500000000, A.D. 2024-Mar-23 00:00:00.0000, 2.901959260935479E+08, 3.907988585128726E+07, 1.630710107157553E+07,
2460399.500000000, A.D. 2024-Mar-30 00:00:00.0000, 2.865246269337841E+08, 5.237769161931039E+07, 1.747995519773733E+07,
2460406.500000000, A.D. 2024-Apr-06 00:00:00.0000, 2.822936239285231E+08, 6.557318735263751E+07, 1.861865113297011E+07,
2460413.500000000, A.D. 2024-Apr-13 00:00:00.0000, 2.775032340509922E+08, 7.863875649512962E+07, 1.972043998756152E+07,
2460420.500000000, A.D. 2024-Apr-20 00:00:00.0000, 2.721554866641950E+08, 9.154639934076348E+07, 2.078260776818435E+07,
2460427.500000000, A.D. 2024-Apr-27 00:00:00.0000, 2.662541920465736E+08, 1.042678654017506E+08, 2.180249148377891E+07,
2460434.500000000, A.D. 2024-May-04 00:00:00.0000, 2.598049971714994E+08, 1.167747963223994E+08, 2.277749581571839E+07,
2460441.500000000, A.D. 2024-May-11 00:00:00.0000, 2.528154272329944E+08, 1.290388778956550E+08, 2.370511011128645E+07,
2460448.500000000, A.D. 2024-May-18 00:00:00.0000, 2.452949113985891E+08, 1.410319995584677E+08, 2.458292545639445E+07,
2460455.500000000, A.D. 2024-May-25 00:00:00.0000, 2.372547914320762E+08, 1.527264194394026E+08, 2.540865156879330E+07,
2460462.500000000, A.D. 2024-Jun-01 00:00:00.0000, 2.287083121597663E+08, 1.640949327368362E+08, 2.618013323895632E+07,
2460469.500000000, A.D. 2024-Jun-08 00:00:00.0000, 2.196705932929440E+08, 1.751110410259466E+08, 2.689536603013001E+07,
2460476.500000000, A.D. 2024-Jun-15 00:00:00.0000, 2.101585826566028E+08, 1.857491204895409E+08, 2.755251098065249E+07,
2460483.500000000, A.D. 2024-Jun-22 00:00:00.0000, 2.001909898595805E+08, 1.959845875899757E+08, 2.814990823296434E+07,
2460490.500000000, A.D. 2024-Jun-29 00:00:00.0000, 1.897881987312489E+08, 2.057940577055653E+08, 2.868608938802451E+07,
2460497.500000000, A.D. 2024-Jul-06 00:00:00.0000, 1.789721620748399E+08, 2.151554916929332E+08, 2.915978792390709E+07,
2460504.500000000, A.D. 2024-Jul-13 00:00:00.0000, 1.677662820098631E+08, 2.240483307597436E+08, 2.956994754090974E+07,
2460511.500000000, A.D. 2024-Jul-20 00:00:00.0000, 1.561952756110521E+08, 2.324536185814806E+08, 2.991572855755205E+07,
2460518.500000000, A.D. 2024-Jul-27 00:00:00.0000, 1.442850272272907E+08, 2.403541077917431E+08, 3.019651223440531E+07,
2460525.500000000, A.D. 2024-Aug-03 00:00:00.0000, 1.320624300790580E+08, 2.477343489144613E+08, 3.041190291322309E+07,
2460532.500000000, A.D. 2024-Aug-10 00:00:00.0000, 1.195552198364890E+08, 2.545807605741102E+08, 3.056172794762446E+07,
2460539.500000000, A.D. 2024-Aug-17 00:00:00.0000, 1.067918028928057E+08, 2.608816802722875E+08, 3.064603546283786E+07,
2460546.500000000, A.D. 2024-Aug-24 00:00:00.0000, 9.380108207728305E+07, 2.666273954128297E+08, 3.066509002618465E+07,
2460553.500000000, A.D. 2024-Aug-31 00:00:00.0000, 8.061228260698356E+07, 2.718101546508199E+08, 3.061936634079301E+07,
2460560.500000000, A.D. 2024-Sep-07 00:00:00.0000, 6.725478121668853E+07, 2.764241602411131E+08, 3.050954110444489E+07,
2460567.500000000, A.D. 2024-Sep-14 00:00:00.0000, 5.375794095119680E+07, 2.804655433112907E+08, 3.033648330292332E+07,
2460574.500000000, A.D. 2024-Sep-21 00:00:00.0000, 4.015095176232228E+07, 2.839323237196551E+08, 3.010124337402545E+07,
2460581.500000000, A.D. 2024-Sep-28 00:00:00.0000, 2.646267829910800E+07, 2.868243527688053E+08, 2.980504125267276E+07,
2460588.500000000, A.D. 2024-Oct-05 00:00:00.0000, 1.272152011528953E+07, 2.891432405130380E+08, 2.944925320405760E+07,
2460595.500000000, A.D. 2024-Oct-12 00:00:00.0000, -1.044714818250880E+06, 2.908922725288531E+08, 2.903539796402124E+07,
2460602.500000000, A.D. 2024-Oct-19 00:00:00.0000, -1.480892413719025E+07, 2.920763178251996E+08, 2.856512255798107E+07,
2460609.500000000, A.D. 2024-Oct-26 00:00:00.0000, -2.854481210074861E+07, 2.927017290638443E+08, 2.804018795826887E+07,
2460616.500000000, A.D. 2024-Nov-02 00:00:00.0000, -4.222697707694163E+07, 2.927762368868436E+08, 2.746245475087996E+07,
2460623.500000000, A.D. 2024-Nov-09 00:00:00.0000, -5.583098541329566E+07, 2.923088402402703E+08, 2.683386899125937E+07,
2460630.500000000, A.D. 2024-Nov-16 00:00:00.0000, -6.933343193109255E+07, 2.913096944469590E+08, 2.615644841114274E+07,
2460637.500000000, A.D. 2024-Nov-23 00:00:00.0000, -8.271198747458808E+07, 2.897899985853749E+08, 2.543226910866246E+07,
2460644.500000000, A.D. 2024-Nov-30 00:00:00.0000, -9.594543396200064E+07, 2.877618835724594E+08, 2.466345281552744E+07,
2460651.500000000, A.D. 2024-Dec-07 00:00:00.0000, -1.090136873136293E+08, 2.852383026327679E+08, 2.385215482987748E+07,
2460658.500000000, A.D. 2024-Dec-14 00:00:00.0000, -1.218978098448488E+08, 2.822329264593076E+08, 2.300055284819941E+07,
2460665.500000000, A.D. 2024-Dec-21 00:00:00.0000, -1.345800154042363E+08, 2.787600427279485E+08, 2.211083685599914E+07,
2460672.500000000, A.D. 2024-Dec-28 00:00:00.0000, -1.470436662739248E+08, 2.748344577064778E+08, 2.118519968174830E+07,
2460679.500000000, A.D. 2025-Jan-04 00:00:00.0000, -1.592732602506388E+08, 2.704714028726844E+08, 2.022582818237780E+07,
2460686.500000000, A.D. 2025-Jan-11 00:00:00.0000, -1.712544107323372E+08, 2.656864486080924E+08, 1.923489536055255E+07,
2460693.500000000, A.D. 2025-Jan-18 00:00:00.0000, -1.829738216850144E+08, 2.604954243081372E+08, 1.821455340590382E+07,
2460700.500000000, A.D. 2025-Jan-25 00:00:00.0000, -1.944192581582204E+08, 2.549143445598418E+08, 1.716692757156822E+07,
2460707.500000000, A.D. 2025-Feb-01 00:00:00.0000, -2.055795130182052E+08, 2.489593413747834E+08, 1.609411083059411E+07,
2460714.500000000, A.D. 2025-Feb-08 00:00:00.0000, -2.164443706363600E+08, 2.426466024253498E+08, 1.499815926697953E+07,
$$EOE